*******************************************************************************
JPL/HORIZONS                   103P/Hartley 2              2016-Apr-05 07:53:21
Rec #:900870 (+COV)   Soln.date: 2014-Nov-10_13:49:39   # obs: 6506 (1986-2013)
 
FK5/J2000.0 helio. ecliptic osc. elements (au, days, deg., period=Julian yrs): 
 
  EPOCH=  2456981.5 ! 2014-Nov-20.0000000 (TDB)    RMSW= n.a.                  
   EC= .6937804720128784   QR= 1.064195154203179   TP= 2457863.8230300969      
   OM= 219.7487450736021   W= 181.3222857728302    IN= 13.6042724340803        
   A= 3.475268743304754    MA= 225.7701522441      ADIST= 5.886342332406328    
   PER= 6.4787437937458    N= .152132314           ANGMOM= .023095142          
   DAN= 5.88279            DDN= 1.06431            L= 41.0339546               
   B= -.310996             MOID= .0720049          TP= 2017-Apr-20.3230300969  
 
Comet physical (GM= km^3/s^2; RAD= km):                                        
   GM= n.a.                RAD= .800                                           
   M1=  14.7     M2=  n.a.     k1=  8.     k2= n.a.     PHCOF= n.a.            
 
COMET comments 
1: soln ref.= JPL#252, data arc: 1986-03-15 to 2013-05-14
2: k1=8.;
*******************************************************************************
 
 
*******************************************************************************
Ephemeris / WWW_USER Tue Apr  5 07:53:22 2016 Pasadena, USA      / Horizons    
*******************************************************************************
Target body name: 103P/Hartley 2                  {source: JPL#252}
Center body name: Earth (399)                     {source: DE431}
Center-site name: Green Bank (GBT)
*******************************************************************************
Start time      : A.D. 2016-Apr-05 00:00:00.0000 UT      
Stop  time      : A.D. 2016-Apr-06 00:00:00.0000 UT      
Step-size       : 5 minutes
*******************************************************************************
Target pole/equ : No model available
Target radii    : 0.8 km                                                       
Center geodetic : 280.160200,38.4330940,0.8760930 {E-lon(deg),Lat(deg),Alt(km)}
Center cylindric: 280.160200,5003.37558,3943.7589 {E-lon(deg),Dxy(km),Dz(km)}
Center pole/equ : High-precision EOP model        {East-longitude +}
Center radii    : 6378.1 x 6378.1 x 6356.8 km     {Equator, meridian, pole}    
Target primary  : Sun
Vis. interferer : MOON (R_eq= 1737.400) km        {source: DE431}
Rel. light bend : Sun, EARTH                      {source: DE431}
Rel. lght bnd GM: 1.3271E+11, 3.9860E+05 km^3/s^2                              
Small-body perts: Yes                             {source: SB431-BIG16}
Atmos refraction: NO (AIRLESS)
RA format       : HMS
Time format     : CAL 
RTS-only print  : NO       
EOP file        : eop.160404.p160626                                           
EOP coverage    : DATA-BASED 1962-JAN-20 TO 2016-APR-04. PREDICTS-> 2016-JUN-25
Units conversion: 1 au= 149597870.700 km, c= 299792.458 km/s, 1 day= 86400.0 s 
Table cut-offs 1: Elevation (-90.0deg=NO ),Airmass (>38.000=NO), Daylight (NO )
Table cut-offs 2: Solar Elongation (  0.0,180.0=NO ),Local Hour Angle( 0.0=NO )
*******************************************************************************
Initial FK5/J2000.0 heliocentric ecliptic osculating elements (au, days, deg.):
  EPOCH=  2456981.5 ! 2014-Nov-20.0000000 (TDB)    RMSW= n.a.                  
   EC= .6937804720128784   QR= 1.064195154203179   TP= 2457863.8230300969      
   OM= 219.7487450736021   W= 181.3222857728302    IN= 13.6042724340803        
Comet physical (GM= km^3/s^2; RAD= km):                                        
   GM= n.a.                RAD= .800                                           
   M1=  14.7     M2=  n.a.     k1=  8.     k2= n.a.     PHCOF= n.a.            
**********************************************************************************************
 Date__(UT)__HR:MN     R.A._(ICRF/J2000.0)_DEC dRA*cosD d(DEC)/dt            delta      deldot
**********************************************************************************************
$$SOE
 2016-Apr-05 10:10 Nm  18 27 08.52 -13 23 53.9 11.16294  9.828492 3.49116119014070 -36.1075928
 2016-Apr-05 10:15 Nm  18 27 08.58 -13 23 53.1 11.15905  9.831314 3.49108878703086 -36.0997197
 2016-Apr-05 10:20 Nm  18 27 08.64 -13 23 52.3 11.15540  9.834144 3.49101639973718 -36.0918200
 2016-Apr-05 10:25 Nm  18 27 08.71 -13 23 51.5 11.15200  9.836983 3.49094402830921 -36.0838975
 2016-Apr-05 10:30 Nm  18 27 08.77 -13 23 50.7 11.14884  9.839828 3.49087167278913 -36.0759557
 2016-Apr-05 10:35 Cm  18 27 08.84 -13 23 49.8 11.14593  9.842678 3.49079933321169 -36.0679985
 2016-Apr-05 10:40 Cm  18 27 08.90 -13 23 49.0 11.14327  9.845532 3.49072700960426 -36.0600295
 2016-Apr-05 10:45 Cm  18 27 08.96 -13 23 48.2 11.14085  9.848389 3.49065470198675 -36.0520525
 2016-Apr-05 10:50 Cm  18 27 09.03 -13 23 47.4 11.13869  9.851247 3.49058241037166 -36.0440710
 2016-Apr-05 10:55 Ct  18 27 09.09 -13 23 46.6 11.13677  9.854106 3.49051013476402 -36.0360889
 2016-Apr-05 11:00 *m  18 27 09.15 -13 23 45.7 11.13510  9.856963 3.49043787516144 -36.0281098
 2016-Apr-05 11:05 *m  18 27 09.22 -13 23 44.9 11.13367  9.859818 3.49036563155408 -36.0201375
 2016-Apr-05 11:10 *m  18 27 09.28 -13 23 44.1 11.13250  9.862670 3.49029340392464 -36.0121757
 2016-Apr-05 11:15 *m  18 27 09.35 -13 23 43.3 11.13157  9.865516 3.49022119224841 -36.0042281
 2016-Apr-05 11:20 *m  18 27 09.41 -13 23 42.5 11.13089  9.868357 3.49014899649327 -35.9962983
 2016-Apr-05 11:25 *m  18 27 09.47 -13 23 41.6 11.13045  9.871190 3.49007681661966 -35.9883901
 2016-Apr-05 11:30 *m  18 27 09.54 -13 23 40.8 11.13026  9.874015 3.49000465258068 -35.9805071
 2016-Apr-05 11:35 *m  18 27 09.60 -13 23 40.0 11.13032  9.876830 3.48993250432203 -35.9726530
 2016-Apr-05 11:40 *m  18 27 09.66 -13 23 39.2 11.13062  9.879634 3.48986037178209 -35.9648315
 2016-Apr-05 11:45 *m  18 27 09.73 -13 23 38.4 11.13116  9.882425 3.48978825489195 -35.9570461
 2016-Apr-05 11:50 *m  18 27 09.79 -13 23 37.5 11.13194  9.885204 3.48971615357539 -35.9493006
 2016-Apr-05 11:55 *m  18 27 09.85 -13 23 36.7 11.13296  9.887967 3.48964406774897 -35.9415985
 2016-Apr-05 12:00 *m  18 27 09.92 -13 23 35.9 11.13422  9.890714 3.48957199732206 -35.9339433
 2016-Apr-05 12:05 *m  18 27 09.98 -13 23 35.1 11.13572  9.893445 3.48949994219688 -35.9263387
 2016-Apr-05 12:10 *m  18 27 10.05 -13 23 34.2 11.13745  9.896157 3.48942790226853 -35.9187881
 2016-Apr-05 12:15 *m  18 27 10.11 -13 23 33.4 11.13942  9.898849 3.48935587742506 -35.9112952
 2016-Apr-05 12:20 *m  18 27 10.17 -13 23 32.6 11.14162  9.901521 3.48928386754751 -35.9038633
 2016-Apr-05 12:25 *m  18 27 10.24 -13 23 31.8 11.14404  9.904171 3.48921187250998 -35.8964958
 2016-Apr-05 12:30 *m  18 27 10.30 -13 23 30.9 11.14670  9.906798 3.48913989217969 -35.8891963
 2016-Apr-05 12:35 *m  18 27 10.36 -13 23 30.1 11.14958  9.909401 3.48906792641702 -35.8819682
 2016-Apr-05 12:40 *m  18 27 10.43 -13 23 29.3 11.15268  9.911978 3.48899597507563 -35.8748146
 2016-Apr-05 12:45 *m  18 27 10.49 -13 23 28.5 11.15601  9.914529 3.48892403800245 -35.8677391
 2016-Apr-05 12:50 *m  18 27 10.56 -13 23 27.6 11.15955  9.917053 3.48885211503783 -35.8607447
 2016-Apr-05 12:55 *m  18 27 10.62 -13 23 26.8 11.16331  9.919548 3.48878020601558 -35.8538349
 2016-Apr-05 13:00 *m  18 27 10.68 -13 23 26.0 11.16728  9.922013 3.48870831076303 -35.8470128
 2016-Apr-05 13:05 *m  18 27 10.75 -13 23 25.2 11.17146  9.924448 3.48863642910118 -35.8402815
 2016-Apr-05 13:10 *m  18 27 10.81 -13 23 24.3 11.17584  9.926850 3.48856456084471 -35.8336442
 2016-Apr-05 13:15 *m  18 27 10.88 -13 23 23.5 11.18043  9.929220 3.48849270580210 -35.8271039
 2016-Apr-05 13:20 *m  18 27 10.94 -13 23 22.7 11.18523  9.931556 3.48842086377575 -35.8206636
 2016-Apr-05 13:25 *m  18 27 11.00 -13 23 21.9 11.19022  9.933857 3.48834903456201 -35.8143264
 2016-Apr-05 13:30 *m  18 27 11.07 -13 23 21.0 11.19540  9.936122 3.48827721795135 -35.8080951
 2016-Apr-05 13:35 *m  18 27 11.13 -13 23 20.2 11.20077  9.938350 3.48820541372841 -35.8019726
 2016-Apr-05 13:40 *m  18 27 11.20 -13 23 19.4 11.20633  9.940541 3.48813362167212 -35.7959618
 2016-Apr-05 13:45 *m  18 27 11.26 -13 23 18.6 11.21208  9.942693 3.48806184155581 -35.7900654
 2016-Apr-05 13:50 *m  18 27 11.32 -13 23 17.7 11.21801  9.944805 3.48799007314730 -35.7842861
 2016-Apr-05 13:55 *m  18 27 11.39 -13 23 16.9 11.22411  9.946876 3.48791831620903 -35.7786266
 2016-Apr-05 14:00 *m  18 27 11.45 -13 23 16.1 11.23038  9.948906 3.48784657049817 -35.7730894
 2016-Apr-05 14:05 *m  18 27 11.52 -13 23 15.3 11.23682  9.950894 3.48777483576675 -35.7676772
 2016-Apr-05 14:10 *m  18 27 11.58 -13 23 14.4 11.24343  9.952838 3.48770311176172 -35.7623924
 2016-Apr-05 14:15 *m  18 27 11.65 -13 23 13.6 11.25019  9.954739 3.48763139822516 -35.7572375
 2016-Apr-05 14:20 *m  18 27 11.71 -13 23 12.8 11.25712  9.956595 3.48755969489432 -35.7522147
 2016-Apr-05 14:25 *m  18 27 11.77 -13 23 11.9 11.26419  9.958405 3.48748800150182 -35.7473264
 2016-Apr-05 14:30 *m  18 27 11.84 -13 23 11.1 11.27141  9.960169 3.48741631777571 -35.7425748
 2016-Apr-05 14:35 *m  18 27 11.90 -13 23 10.3 11.27878  9.961886 3.48734464343966 -35.7379621
 2016-Apr-05 14:40 *m  18 27 11.97 -13 23 09.5 11.28628  9.963555 3.48727297821301 -35.7334903
 2016-Apr-05 14:45 *m  18 27 12.03 -13 23 08.6 11.29392  9.965176 3.48720132181102 -35.7291616
 2016-Apr-05 14:50 *m  18 27 12.10 -13 23 07.8 11.30169  9.966748 3.48712967394491 -35.7249778
 2016-Apr-05 14:55 *m  18 27 12.16 -13 23 07.0 11.30958  9.968270 3.48705803432204 -35.7209409
 2016-Apr-05 15:00 *m  18 27 12.23 -13 23 06.1 11.31759  9.969742 3.48698640264605 -35.7170527
 2016-Apr-05 15:05 *m  18 27 12.29 -13 23 05.3 11.32572  9.971162 3.48691477861698 -35.7133150
 2016-Apr-05 15:10 *m  18 27 12.36 -13 23 04.5 11.33396  9.972531 3.48684316193144 -35.7097293
